0 SL-8 R/B
1 20557U 90029J   13281.20078262 -.00000049  00000-0 -30245-3 0  2378
2 20557 073.9851 174.9064 0152687 285.3417 177.0244 12.23114561 49637
0 SL-8 R/B
1 20557U 90029J   13283.33810337 -.00000013  00000-0  22004-4 0  2387
2 20557 073.9847 172.1982 0152699 282.3083 228.0940 12.23113958 49897
0 SL-8 R/B
1 20557U 90029J   13285.45330147 -.00000001  00000-0  13198-3 0  2399
2 20557 073.9844 169.5180 0152659 279.3033 181.7497 12.23113736 50158
0 SL-8 R/B
1 20557U 90029J   13287.73272231 -.00000047  00000-0 -27850-3 0  2404
2 20557 073.9841 166.6299 0152648 276.0629 138.5064 12.23114221 50438
0 SL-8 R/B
1 20557U 90029J   13289.86412980 -.00000042  00000-0 -23150-3 0  2412
2 20557 073.9837 163.9292 0152627 273.0370 163.5336 12.23114009 50695
0 SL-8 R/B
1 20557U 90029J   13292.16021668 -.00000056  00000-0 -35664-3 0  2427
2 20557 073.9833 161.0200 0152605 269.7810 193.6708 12.23113606 50976
0 SL-8 R/B
1 20557U 90029J   13294.20742480 -.00000066  00000-0 -45362-3 0  2434
2 20557 073.9830 158.4258 0152621 266.8723 207.9469 12.23113579 51226
